STARLINK-1869           
1 47155U 20088AK  21034.25001157 -.00014491  00000-0 -95552-3 0  9991
2 47155  53.0557  23.4621 0002156  62.7680 314.2082 15.06414148 11534
STARLINK-1870           
1 47156U 20088AL  21033.94488004  .00047777  00000-0  52326-3 0  9990
2 47156  53.0563  10.4028 0002286  33.6417 326.4741 15.62815547 11445
STARLINK-1871           
1 47157U 20088AM  21034.25001157 -.01059445  00000-0 -63371-1 0  9994
2 47157  53.0586  13.5233 0001729  49.1903  84.6907 15.13344358 11671
STARLINK-1873           
1 47158U 20088AN  21034.25001157 -.00022531  00000-0 -24050-3 0  9993
2 47158  53.0564   8.9178 0001628  43.7255 231.5125 15.62795742 11746
STARLINK-1874           
1 47159U 20088AP  21034.25001157 -.01078243  00000-0 -74951-1 0  9999
2 47159  53.0606  13.4659 0001535  55.7732  14.0466 15.07992500 11673
STARLINK-1875           
1 47160U 20088AQ  21033.94522541  .00051627  00000-0  56483-3 0  9997
2 47160  53.0571  10.4048 0001471  65.3939 294.7228 15.62810529 11449
STARLINK-1876           
1 47161U 20088AR  21034.25001157  .00004671  00000-0  56689-4 0  9994
2 47161  53.0559   8.9205 0001516  51.1080 217.1152 15.62814418 11742
STARLINK-1877           
1 47162U 20088AS  21034.25001157 -.01130322  00000-0 -74227-1 0  9996
2 47162  53.0556  13.4726 0001571  56.3907 184.6197 15.10193406 11685
STARLINK-1878           
1 47163U 20088AT  21033.91667824 -.00094282  00000-0 -63850-2 0  9992
2 47163  53.0560  24.9490 0001682  54.8950  78.4586 15.06457446  1942
STARLINK-1879           
1 47164U 20088AU  21034.25001157 -.00052888  00000-0 -57392-3 0  9993
2 47164  53.0560   8.9198 0001321  49.4196 221.3999 15.62824412 11741
STARLINK-1880           
1 47165U 20088AV  21034.25001157 -.01059289  00000-0 -64512-1 0  9997
2 47165  53.0573  13.5110 0001642  49.4640  31.4059 15.12705599 11670
STARLINK-1881           
1 47166U 20088AW  21034.25001157 -.01058892  00000-0 -64874-1 0  9998
2 47166  53.0552  13.5082 0001611  48.6333  14.4352 15.12492215 11677
STARLINK-1884           
1 47167U 20088AX  21034.25001157 -.01129368  00000-0 -75542-1 0  9990
2 47167  53.0585  13.4668 0001690  54.4315 130.0240 15.09525689 11731
STARLINK-1885           
1 47168U 20088AY  21034.25001157 -.01129581  00000-0 -75039-1 0  9999
2 47168  53.0572  13.4695 0001664  54.9160 148.3319 15.09774679 11736
STARLINK-1886           
1 47169U 20088AZ  21033.91667824  .00244656  00000-0  29787-2 0  9999
2 47169  53.0548  11.8025 0010774 326.3686 332.1579 15.59140155  1966
STARLINK-1887           
1 47170U 20088BA  21033.91667824 -.01125470  00000-0 -71847-1 0  9999
2 47170  53.0534  14.9798 0001500  61.3232 184.5560 15.11197785 11671
STARLINK-1888           
1 47171U 20088BB  21034.25001157  .00023459  00000-0  26103-3 0  9997
2 47171  53.0563   8.9318 0001389  36.3466 230.0124 15.62779095 11771
STARLINK-1889           
1 47172U 20088BC  21033.91667824  .00022994  00000-0  16627-2 0  9991
2 47172  53.0478  19.1141 0001619  75.1867 145.9429 15.03954730 11618
STARLINK-1890           
1 47173U 20088BD  21034.25001157 -.01129379  00000-0 -75792-1 0  9996
2 47173  53.0566  13.4718 0001543  65.3109 124.8145 15.09407378 11720
STARLINK-1891           
1 47174U 20088BE  21034.25001157 -.01059583  00000-0 -63772-1 0  9991
2 47174  53.0583  13.5244 0001662  52.1058  63.9822 15.13126002 11715
STARLINK-1895           
1 47175U 20088BF  21033.91667824 -.00014528  00000-0 -15266-3 0  9999
2 47175  53.0556  10.5589 0001252  59.4506 133.5847 15.62827368  1805
STARLINK-1900           
1 47176U 20088BG  21034.25001157 -.00048352  00000-0 -52405-3 0  9997
2 47176  53.0564   8.9204 0001338  47.5581 222.6202 15.62817232 12273
STARLINK-1907           
1 47177U 20088BH  21034.25001157 -.00001928  00000-0 -15212-4 0  9992
2 47177  53.0560   8.9224 0001093  42.3182 226.5884 15.62783805 11782
STARLINK-1912           
1 47178U 20088BJ  21033.91667824 -.01065811  00000-0 -74263-1 0  9994
2 47178  53.0550  15.0255 0001322  66.4445 274.9734 15.07873507  1798
STARLINK-1913           
1 47179U 20088BK  21033.91667824  .00036024  00000-0  24271-2 0  9991
2 47179  53.0555  24.9550 0002001  58.3258 349.9627 15.06367333  1796
STARLINK-1914           
1 47180U 20088BL  21033.97047241  .00000513  00000-0  53359-4 0  9999
2 47180  53.0583  24.7063 0002013  56.8189 303.2993 15.06389180 11249
STARLINK-1927           
1 47181U 20088BM  21034.25001157 -.00053616  00000-0 -58283-3 0  9992
2 47181  53.0558   8.9376 0001593  50.3104 212.7610 15.62785442 11738
LUCAS (JDRS-1)          
1 47202U 20089A   21034.08382421 -.00000236  00000-0  00000+0 0  9993
2 47202   0.0182  94.8167 0003551 238.4999 281.0366  1.00271665   746
FALCON EYE 2            
1 47226U 20090A   21034.06178408  .00000146  00000-0  23455-4 0  9990
2 47226  97.8592 110.9653 0001422  82.4370 277.6995 14.84901035  9358
GONETS-M 20             
1 47227U 20091A   21034.05412399  .00000024  00000-0  10000-3 0  9997
2 47227  82.5036  80.7951 0021727 136.6990 223.5802 12.42882563  7708
GONETS-M 21             
1 47228U 20091B   21034.10801701  .00000024  00000-0  10000-3 0  9993
2 47228  82.4960  80.6827 0015626 147.3218 212.8835 12.42860337  7700
GONETS-M 22             
1 47229U 20091C   21034.32319211  .00020017  00000-0  14407+0 0  9993
2 47229  82.4987  80.5286 0023143 130.0879 230.0469 12.42896811  7726
COSMOS 2548             
1 47230U 20091D   21033.93379442  .00000006  00000-0 -30072-4 0  9991
2 47230  82.4974  80.7901 0016269 147.4274 212.7813 12.42950801  7597
GAOFEN 14               
1 47231U 20092A   21034.18820027  .00000887  00000-0  37690-4 0  9990
2 47231  97.4341 111.6399 0012939  60.1820  19.4022 15.25641513  8995
GECAM-A                 
1 47234U 20094A   21034.19860980  .00000337  00000-0  19750-4 0  9995
2 47234  28.9993  26.2615 0012762 138.9723 221.1839 14.90677022  8221
GECAM-B                 
1 47235U 20094B   21034.12786131  .00000435  00000-0  29484-4 0  9998
2 47235  29.0006  26.6572 0013278 139.1802 220.9826 14.90780621  8211
SXM-7                   
1 47240U 20096A   21034.02757596  .00000009  00000-0  00000+0 0  9993
2 47240   0.0125  22.5781 0003240   4.6620 355.5994  1.00271050   689
IPM 2 & BREEZE-M R/B    
1 47242U 20097A   21034.12948284 -.00000125  00000-0  00000+0 0  9993
2 47242   0.1245 133.6482 0088887 187.8684  37.8254  0.95298338   580
STRIX-ALPHA             
1 47253U 20098A   21034.02144648  .00001801  00000-0  84516-4 0  9997
2 47253  97.3735 290.5682 0014918 120.1824   5.3104 15.20840154  7538
CMS-01                  
1 47256U 20099A   21033.92688318 -.00000166  00000-0  00000+0 0  9991
2 47256   0.0120 103.4615 0007537 180.4340 266.1186  1.00271938   530
ONEWEB-0102             
1 47258U 20100A   21033.91667824 -.01371956  00000-0 -26649+0 0  9991
2 47258  87.4997  23.7849 0011838 106.7871  37.9150 14.66667849  1818
ONEWEB-0109             
1 47259U 20100B   21034.16667824 -.01443609  00000-0 -40281+0 0  9993
2 47259  87.3465  23.7009 0010911 107.7607 263.5200 14.49721374  7033
ONEWEB-0110             
1 47260U 20100C   21033.91667824 -.01407564  00000-0 -28346+0 0  9995
2 47260  87.4840  23.7734 0010995 108.3218 307.5471 14.65163347  1766
ONEWEB-0111             
1 47261U 20100D   21034.16667824 -.01477879  00000-0 -47344+0 0  9999
2 47261  87.2851  23.7018 0011218 108.8288 294.7466 14.43118237  7023
ONEWEB-0114             
1 47262U 20100E   21034.16667824 -.01477170  00000-0 -47400+0 0  9997
2 47262  87.2966  23.6596 0011664  98.1502 240.9153 14.43031469  7023
ONEWEB-0117             
1 47263U 20100F   21034.16667824 -.01477194  00000-0 -44655+0 0  9993
2 47263  87.3155  23.6812 0012696 114.7247 291.7500 14.45953892  7039
ONEWEB-0118             
1 47264U 20100G   21033.91667824 -.01395657  00000-0 -25786+0 0  9993
2 47264  87.5175  23.7609 0014463 101.3498 319.4675 14.68897722  1818
ONEWEB-0119             
1 47265U 20100H   21033.91667824 -.01394150  00000-0 -28080+0 0  9991
2 47265  87.4838  23.7642 0015138 102.3668 151.2490 14.65069923  1819
ONEWEB-0120             
1 47266U 20100J   21033.91667824 -.01380299  00000-0 -26724+0 0  9994
2 47266  87.5027  23.7721 0012255 110.7036 100.3714 14.66827489  1823
ONEWEB-0121             
1 47267U 20100K   21034.16667824 -.01219132  00000-0 -36113+0 0  9993
2 47267  87.3126  23.6904 0014250 111.1906  16.7432 14.46820708  7033
ONEWEB-0122             
1 47268U 20100L   21033.91667824 -.01396520  00000-0 -44665+0 0  9994
2 47268  87.2977  23.7914 0011144 105.2545 304.9566 14.43003425  1794
ONEWEB-0123             
1 47269U 20100M   21034.16667824 -.01319322  00000-0 -27852+0 0  9997
2 47269  87.4694  23.6994 0010698 103.5998  35.3902 14.62832730  7083
ONEWEB-0124             
1 47270U 20100N   21034.16667824 -.01439284  00000-0 -39819+0 0  9995
2 47270  87.3679  23.8135 0011803  96.4566 173.8948 14.50105144  7038
ONEWEB-0125             
1 47271U 20100P   21034.16667824 -.01497693  00000-0 -36336+0 0  9995
2 47271  87.4141  23.7018 0011063  97.1783 274.4531 14.56374083  7054
ONEWEB-0126             
1 47272U 20100Q   21033.91667824 -.01400286  00000-0 -27359+0 0  9995
2 47272  87.5061  23.7850 0012383  94.2256 350.9937 14.66472423  1759
ONEWEB-0127             
1 47273U 20100R   21033.91667824 -.01362108  00000-0 -25004+0 0  9991
2 47273  87.5156  23.7710 0014068 105.2930 286.7596 14.69104532  1814
ONEWEB-0128             
1 47274U 20100S   21033.91667824 -.01371767  00000-0 -23336+0 0  9999
2 47274  87.5332  23.7093 0014985  87.0324 333.8043 14.72427809  1750
ONEWEB-0129             
1 47275U 20100T   21034.16667824 -.01483589  00000-0 -35441+0 0  9994
2 47275  87.4308  23.7363 0013594 110.2253 331.9555 14.57026097  7051
ONEWEB-0130             
1 47276U 20100U   21033.91667824 -.01419822  00000-0 -31061+0 0  9990
2 47276  87.4596  23.8384 0011386  95.0494 307.6809 14.61475754  1823
